{
  "norad_id": 66905,
  "name": "STARLINK-36075",
  "history": [
    {
      "epoch": "2026-03-28T20:34:34.214016",
      "apogee_km": 476.0103237603071,
      "perigee_km": 474.45872044770294,
      "latitude_deg": 10.747476683959393,
      "longitude_deg": -127.1953177601099,
      "semi_major_axis_km": 6853.371522104005,
      "eccentricity": 0.0001132,
      "inclination_deg": 53.1577,
      "raan_deg": 295.5,
      "arg_perigee_deg": 86.2489,
      "mean_anomaly_deg": 273.8641,
      "mean_motion_rev_day": 15.30193485
    }
  ]
}